[{"OBJECT_NAME":"STARLINK-31174","OBJECT_ID":"2024-012X","EPOCH":"2026-03-09T07:36:39.600000","MEAN_MOTION":15.27564523,"ECCENTRICITY":5.759e-5,"INCLINATION":42.996,"RA_OF_ASC_NODE":166.9497,"ARG_OF_PERICENTER":271.4466,"MEAN_ANOMALY":88.6319,"EPHEMERIS_TYPE":0,"CLASSIFICATION_TYPE":"U","NORAD_CAT_ID":58808,"ELEMENT_SET_NO":999,"REV_AT_EPOCH":12118,"BSTAR":-3.23741e-6,"MEAN_MOTION_DOT":-3.51e-6,"MEAN_MOTION_DDOT":0},{"OBJECT_NAME":"COSMOS 2251 DEB","OBJECT_ID":"1993-036BXP","EPOCH":"2026-03-04T07:23:49.847712","MEAN_MOTION":15.24789556,"ECCENTRICITY":0.00190834,"INCLINATION":73.9759,"RA_OF_ASC_NODE":64.3004,"ARG_OF_PERICENTER":239.4537,"MEAN_ANOMALY":120.4779,"EPHEMERIS_TYPE":0,"CLASSIFICATION_TYPE":"U","NORAD_CAT_ID":47059,"ELEMENT_SET_NO":999,"REV_AT_EPOCH":9543,"BSTAR":0.0048704033,"MEAN_MOTION_DOT":0.00123422,"MEAN_MOTION_DDOT":0}]
